[
  {
    "OBJECT_NAME": "STARLINK-31250",
    "OBJECT_ID": "24017P",
    "EPOCH": "2025-11-10T13:50:54.109824",
    "MEAN_MOTION": 15.30194625,
    "ECCENTRICITY": 0.0001004,
    "INCLINATION": 53.1603,
    "RA_OF_ASC_NODE": 27.3529,
    "ARG_OF_PERICENTER": 132.8565,
    "MEAN_ANOMALY": 227.2521,
    "EPHEMERIS_TYPE": 0,
    "CLASSIFICATION_TYPE": "U",
    "NORAD_CAT_ID": 58839,
    "ELEMENT_SET_NO": 999,
    "REV_AT_EPOCH": 10191,
    "BSTAR": 0.00011181000000000002,
    "MEAN_MOTION_DOT": 2.953e-05,
    "MEAN_MOTION_DDOT": 0.0,
    "TLE_LINE1": "1 58839U 24017P   25314.57701516  .00002953  00000+0  11181-3 0  9997",
    "TLE_LINE2": "2 58839  53.1603  27.3529 0001004 132.8565 227.2521 15.30194625101915",
    "COMMENT": "Grouped by shell and plane from TLE"
  },
  {
    "OBJECT_NAME": "STARLINK-31340",
    "OBJECT_ID": "24044U",
    "EPOCH": "2025-11-10T13:25:41.080800",
    "MEAN_MOTION": 15.27585836,
    "ECCENTRICITY": 6.4e-05,
    "INCLINATION": 43.0007,
    "RA_OF_ASC_NODE": 20.2594,
    "ARG_OF_PERICENTER": 246.5544,
    "MEAN_ANOMALY": 113.524,
    "EPHEMERIS_TYPE": 0,
    "CLASSIFICATION_TYPE": "U",
    "NORAD_CAT_ID": 59170,
    "ELEMENT_SET_NO": 999,
    "REV_AT_EPOCH": 9580,
    "BSTAR": 5.6816e-05,
    "MEAN_MOTION_DOT": 1.302e-05,
    "MEAN_MOTION_DDOT": 0.0,
    "TLE_LINE1": "1 59170U 24044U   25314.55950325  .00001302  00000+0  56816-4 0  9990",
    "TLE_LINE2": "2 59170  43.0007  20.2594 0000640 246.5544 113.5240 15.27585836 95808",
    "COMMENT": "Grouped by shell and plane from TLE"
  },
  {
    "OBJECT_NAME": "STARLINK-31403",
    "OBJECT_ID": "24045J",
    "EPOCH": "2025-11-11T04:33:23.550624",
    "MEAN_MOTION": 15.27574322,
    "ECCENTRICITY": 0.0001503,
    "INCLINATION": 43.0061,
    "RA_OF_ASC_NODE": 20.3436,
    "ARG_OF_PERICENTER": 274.2499,
    "MEAN_ANOMALY": 85.8181,
    "EPHEMERIS_TYPE": 0,
    "CLASSIFICATION_TYPE": "U",
    "NORAD_CAT_ID": 59186,
    "ELEMENT_SET_NO": 999,
    "REV_AT_EPOCH": 9522,
    "BSTAR": 0.0,
    "MEAN_MOTION_DOT": -3.295e-05,
    "MEAN_MOTION_DDOT": 0.0,
    "TLE_LINE1": "1 59186U 24045J   25315.18985591 -.00003295  00000+0 -11029-3 0  9992",
    "TLE_LINE2": "2 59186  43.0061  20.3436 0001503 274.2499  85.8181 15.27574322 95226",
    "COMMENT": "Grouped by shell and plane from TLE"
  },
  {
    "OBJECT_NAME": "STARLINK-31444",
    "OBJECT_ID": "24049F",
    "EPOCH": "2025-11-11T04:51:00.217440",
    "MEAN_MOTION": 15.27577813,
    "ECCENTRICITY": 0.0002255,
    "INCLINATION": 43.0057,
    "RA_OF_ASC_NODE": 23.1939,
    "ARG_OF_PERICENTER": 278.3589,
    "MEAN_ANOMALY": 81.7007,
    "EPHEMERIS_TYPE": 0,
    "CLASSIFICATION_TYPE": "U",
    "NORAD_CAT_ID": 59236,
    "ELEMENT_SET_NO": 999,
    "REV_AT_EPOCH": 9505,
    "BSTAR": 3.2027000000000003e-06,
    "MEAN_MOTION_DOT": -1.74e-06,
    "MEAN_MOTION_DDOT": 0.0,
    "TLE_LINE1": "1 59236U 24049F   25315.20208585 -.00000174  00000+0  32027-5 0  9991",
    "TLE_LINE2": "2 59236  43.0057  23.1939 0002255 278.3589  81.7007 15.27577813 95057",
    "COMMENT": "Grouped by shell and plane from TLE"
  },
  {
    "OBJECT_NAME": "STARLINK-32431",
    "OBJECT_ID": "24175P",
    "EPOCH": "2025-11-11T05:01:05.215296",
    "MEAN_MOTION": 15.30207008,
    "ECCENTRICITY": 0.0001519,
    "INCLINATION": 53.1598,
    "RA_OF_ASC_NODE": 24.3723,
    "ARG_OF_PERICENTER": 77.8434,
    "MEAN_ANOMALY": 282.2737,
    "EPHEMERIS_TYPE": 0,
    "CLASSIFICATION_TYPE": "U",
    "NORAD_CAT_ID": 61256,
    "ELEMENT_SET_NO": 999,
    "REV_AT_EPOCH": 6331,
    "BSTAR": 0.00029052,
    "MEAN_MOTION_DOT": 8.256e-05,
    "MEAN_MOTION_DDOT": 0.0,
    "TLE_LINE1": "1 61256U 24175P   25315.20908814  .00008256  00000+0  29052-3 0  9998",
    "TLE_LINE2": "2 61256  53.1598  24.3723 0001519  77.8434 282.2737 15.30207008 63313",
    "COMMENT": "Grouped by shell and plane from TLE"
  },
  {
    "OBJECT_NAME": "STARLINK-32432",
    "OBJECT_ID": "24175Q",
    "EPOCH": "2025-11-10T13:25:06.768768",
    "MEAN_MOTION": 15.30200901,
    "ECCENTRICITY": 0.0001304,
    "INCLINATION": 53.1612,
    "RA_OF_ASC_NODE": 27.4267,
    "ARG_OF_PERICENTER": 75.7012,
    "MEAN_ANOMALY": 284.4133,
    "EPHEMERIS_TYPE": 0,
    "CLASSIFICATION_TYPE": "U",
    "NORAD_CAT_ID": 61257,
    "ELEMENT_SET_NO": 999,
    "REV_AT_EPOCH": 6321,
    "BSTAR": 4.9135e-05,
    "MEAN_MOTION_DOT": 1.096e-05,
    "MEAN_MOTION_DDOT": 0.0,
    "TLE_LINE1": "1 61257U 24175Q   25314.55910612  .00001096  00000+0  49135-4 0  9995",
    "TLE_LINE2": "2 61257  53.1612  27.4267 0001304  75.7012 284.4133 15.30200901 63217",
    "COMMENT": "Grouped by shell and plane from TLE"
  },
  {
    "OBJECT_NAME": "STARLINK-32382",
    "OBJECT_ID": "24175R",
    "EPOCH": "2025-11-11T05:10:15.540096",
    "MEAN_MOTION": 15.30160897,
    "ECCENTRICITY": 0.0001199,
    "INCLINATION": 53.1615,
    "RA_OF_ASC_NODE": 24.4119,
    "ARG_OF_PERICENTER": 84.3115,
    "MEAN_ANOMALY": 275.8023,
    "EPHEMERIS_TYPE": 0,
    "CLASSIFICATION_TYPE": "U",
    "NORAD_CAT_ID": 61258,
    "ELEMENT_SET_NO": 999,
    "REV_AT_EPOCH": 6331,
    "BSTAR": 0.0,
    "MEAN_MOTION_DOT": -2.601e-05,
    "MEAN_MOTION_DDOT": 0.0,
    "TLE_LINE1": "1 61258U 24175R   25315.21545764 -.00002601  00000+0 -75809-4 0  9994",
    "TLE_LINE2": "2 61258  53.1615  24.4119 0001199  84.3115 275.8023 15.30160897 63318",
    "COMMENT": "Grouped by shell and plane from TLE"
  },
  {
    "OBJECT_NAME": "STARLINK-32435",
    "OBJECT_ID": "24175S",
    "EPOCH": "2025-11-11T05:20:49.682400",
    "MEAN_MOTION": 15.30212346,
    "ECCENTRICITY": 0.0001061,
    "INCLINATION": 53.1612,
    "RA_OF_ASC_NODE": 24.4613,
    "ARG_OF_PERICENTER": 61.93,
    "MEAN_ANOMALY": 298.1808,
    "EPHEMERIS_TYPE": 0,
    "CLASSIFICATION_TYPE": "U",
    "NORAD_CAT_ID": 61259,
    "ELEMENT_SET_NO": 999,
    "REV_AT_EPOCH": 6331,
    "BSTAR": 0.0,
    "MEAN_MOTION_DOT": -1.105e-05,
    "MEAN_MOTION_DDOT": 0.0,
    "TLE_LINE1": "1 61259U 24175S   25315.22279725 -.00001105  00000+0 -25178-4 0  9999",
    "TLE_LINE2": "2 61259  53.1612  24.4613 0001061  61.9300 298.1808 15.30212346 63316",
    "COMMENT": "Grouped by shell and plane from TLE"
  },
  {
    "OBJECT_NAME": "STARLINK-32474",
    "OBJECT_ID": "24175T",
    "EPOCH": "2025-11-11T04:51:59.341824",
    "MEAN_MOTION": 15.30163827,
    "ECCENTRICITY": 0.0001,
    "INCLINATION": 53.1618,
    "RA_OF_ASC_NODE": 24.3315,
    "ARG_OF_PERICENTER": 112.1989,
    "MEAN_ANOMALY": 247.9118,
    "EPHEMERIS_TYPE": 0,
    "CLASSIFICATION_TYPE": "U",
    "NORAD_CAT_ID": 61260,
    "ELEMENT_SET_NO": 999,
    "REV_AT_EPOCH": 6331,
    "BSTAR": 0.00017678,
    "MEAN_MOTION_DOT": 4.874e-05,
    "MEAN_MOTION_DDOT": 0.0,
    "TLE_LINE1": "1 61260U 24175T   25315.20277016  .00004874  00000+0  17678-3 0  9999",
    "TLE_LINE2": "2 61260  53.1618  24.3315 0001000 112.1989 247.9118 15.30163827 63312",
    "COMMENT": "Grouped by shell and plane from TLE"
  },
  {
    "OBJECT_NAME": "STARLINK-32447",
    "OBJECT_ID": "24175U",
    "EPOCH": "2025-11-11T04:56:30.344064",
    "MEAN_MOTION": 15.30214593,
    "ECCENTRICITY": 0.000138,
    "INCLINATION": 53.1613,
    "RA_OF_ASC_NODE": 24.3533,
    "ARG_OF_PERICENTER": 79.5261,
    "MEAN_ANOMALY": 280.5895,
    "EPHEMERIS_TYPE": 0,
    "CLASSIFICATION_TYPE": "U",
    "NORAD_CAT_ID": 61261,
    "ELEMENT_SET_NO": 999,
    "REV_AT_EPOCH": 6331,
    "BSTAR": 0.00024456,
    "MEAN_MOTION_DOT": 6.894e-05,
    "MEAN_MOTION_DDOT": 0.0,
    "TLE_LINE1": "1 61261U 24175U   25315.20590676  .00006894  00000+0  24456-3 0  9996",
    "TLE_LINE2": "2 61261  53.1613  24.3533 0001380  79.5261 280.5895 15.30214593 63312",
    "COMMENT": "Grouped by shell and plane from TLE"
  },
  {
    "OBJECT_NAME": "STARLINK-32446",
    "OBJECT_ID": "24175V",
    "EPOCH": "2025-11-11T05:16:16.330080",
    "MEAN_MOTION": 15.30192994,
    "ECCENTRICITY": 6.46e-05,
    "INCLINATION": 53.1614,
    "RA_OF_ASC_NODE": 24.4397,
    "ARG_OF_PERICENTER": 86.195,
    "MEAN_ANOMALY": 273.9125,
    "EPHEMERIS_TYPE": 0,
    "CLASSIFICATION_TYPE": "U",
    "NORAD_CAT_ID": 61262,
    "ELEMENT_SET_NO": 999,
    "REV_AT_EPOCH": 6331,
    "BSTAR": 0.00019934,
    "MEAN_MOTION_DOT": 5.548e-05,
    "MEAN_MOTION_DDOT": 0.0,
    "TLE_LINE1": "1 61262U 24175V   25315.21963345  .00005548  00000+0  19934-3 0  9995",
    "TLE_LINE2": "2 61262  53.1614  24.4397 0000646  86.1950 273.9125 15.30192994 63318",
    "COMMENT": "Grouped by shell and plane from TLE"
  },
  {
    "OBJECT_NAME": "STARLINK-32604",
    "OBJECT_ID": "24217P",
    "EPOCH": "2025-11-11T04:23:11.091264",
    "MEAN_MOTION": 15.30243805,
    "ECCENTRICITY": 9.26e-05,
    "INCLINATION": 53.1604,
    "RA_OF_ASC_NODE": 24.616,
    "ARG_OF_PERICENTER": 109.734,
    "MEAN_ANOMALY": 250.3761,
    "EPHEMERIS_TYPE": 0,
    "CLASSIFICATION_TYPE": "U",
    "NORAD_CAT_ID": 62070,
    "ELEMENT_SET_NO": 999,
    "REV_AT_EPOCH": 5527,
    "BSTAR": 0.0012265,
    "MEAN_MOTION_DOT": 0.00036192,
    "MEAN_MOTION_DDOT": 0.0,
    "TLE_LINE1": "1 62070U 24217P   25315.18276726  .00036192  00000+0  12265-2 0  9994",
    "TLE_LINE2": "2 62070  53.1604  24.6160 0000926 109.7340 250.3761 15.30243805 55270",
    "COMMENT": "Grouped by shell and plane from TLE"
  },
  {
    "OBJECT_NAME": "STARLINK-32553",
    "OBJECT_ID": "24217Q",
    "EPOCH": "2025-11-11T04:21:40.080960",
    "MEAN_MOTION": 15.30247419,
    "ECCENTRICITY": 0.0001787,
    "INCLINATION": 53.1597,
    "RA_OF_ASC_NODE": 24.6138,
    "ARG_OF_PERICENTER": 75.8142,
    "MEAN_ANOMALY": 284.3057,
    "EPHEMERIS_TYPE": 0,
    "CLASSIFICATION_TYPE": "U",
    "NORAD_CAT_ID": 62071,
    "ELEMENT_SET_NO": 999,
    "REV_AT_EPOCH": 5532,
    "BSTAR": 0.0016384000000000001,
    "MEAN_MOTION_DOT": 0.00048554,
    "MEAN_MOTION_DDOT": 0.0,
    "TLE_LINE1": "1 62071U 24217Q   25315.18171390  .00048554  00000+0  16384-2 0  9997",
    "TLE_LINE2": "2 62071  53.1597  24.6138 0001787  75.8142 284.3057 15.30247419 55322",
    "COMMENT": "Grouped by shell and plane from TLE"
  }
]